[{"OBJECT_NAME":"ONEWEB-0263","OBJECT_ID":"2021-060Q","EPOCH":"2025-09-19T07:03:16.258752","MEAN_MOTION":13.16594918,"ECCENTRICITY":0.00014508,"INCLINATION":87.8972,"RA_OF_ASC_NODE":282.7775,"ARG_OF_PERICENTER":99.6945,"MEAN_ANOMALY":260.435,"EPHEMERIS_TYPE":0,"CLASSIFICATION_TYPE":"U","NORAD_CAT_ID":48981,"ELEMENT_SET_NO":999,"REV_AT_EPOCH":20394,"BSTAR":0.0002152481,"MEAN_MOTION_DOT":9.5e-7,"MEAN_MOTION_DDOT":0},{"OBJECT_NAME":"ONEWEB-0264","OBJECT_ID":"2021-060R","EPOCH":"2025-09-19T00:39:06.373440","MEAN_MOTION":13.16592978,"ECCENTRICITY":0.00017111,"INCLINATION":87.8971,"RA_OF_ASC_NODE":282.8351,"ARG_OF_PERICENTER":84.4889,"MEAN_ANOMALY":275.6437,"EPHEMERIS_TYPE":0,"CLASSIFICATION_TYPE":"U","NORAD_CAT_ID":48982,"ELEMENT_SET_NO":999,"REV_AT_EPOCH":20391,"BSTAR":3.0040631e-5,"MEAN_MOTION_DOT":2.4e-7,"MEAN_MOTION_DDOT":0},{"OBJECT_NAME":"ONEWEB-0266","OBJECT_ID":"2021-060T","EPOCH":"2025-09-19T01:09:52.796736","MEAN_MOTION":13.16595448,"ECCENTRICITY":0.00019889,"INCLINATION":87.8977,"RA_OF_ASC_NODE":282.809,"ARG_OF_PERICENTER":96.6264,"MEAN_ANOMALY":263.5093,"EPHEMERIS_TYPE":0,"CLASSIFICATION_TYPE":"U","NORAD_CAT_ID":48984,"ELEMENT_SET_NO":999,"REV_AT_EPOCH":20390,"BSTAR":0.00027297755,"MEAN_MOTION_DOT":1.17e-6,"MEAN_MOTION_DDOT":0},{"OBJECT_NAME":"ONEWEB-0267","OBJECT_ID":"2021-060U","EPOCH":"2025-09-19T06:54:09.066816","MEAN_MOTION":13.16595272,"ECCENTRICITY":0.00015973,"INCLINATION":87.8976,"RA_OF_ASC_NODE":282.7638,"ARG_OF_PERICENTER":90.7122,"MEAN_ANOMALY":269.4192,"EPHEMERIS_TYPE":0,"CLASSIFICATION_TYPE":"U","NORAD_CAT_ID":48985,"ELEMENT_SET_NO":999,"REV_AT_EPOCH":20394,"BSTAR":0.00037993757,"MEAN_MOTION_DOT":1.58e-6,"MEAN_MOTION_DDOT":0},{"OBJECT_NAME":"ONEWEB-0268","OBJECT_ID":"2021-060V","EPOCH":"2025-09-19T00:40:13.570176","MEAN_MOTION":13.16595128,"ECCENTRICITY":0.00018362,"INCLINATION":87.8978,"RA_OF_ASC_NODE":282.8212,"ARG_OF_PERICENTER":88.6832,"MEAN_ANOMALY":271.4509,"EPHEMERIS_TYPE":0,"CLASSIFICATION_TYPE":"U","NORAD_CAT_ID":48986,"ELEMENT_SET_NO":999,"REV_AT_EPOCH":20417,"BSTAR":3.3651429e-5,"MEAN_MOTION_DOT":2.6e-7,"MEAN_MOTION_DDOT":0},{"OBJECT_NAME":"ONEWEB-0269","OBJECT_ID":"2021-060W","EPOCH":"2025-09-19T07:30:38.200032","MEAN_MOTION":13.16594478,"ECCENTRICITY":0.00020287,"INCLINATION":87.8968,"RA_OF_ASC_NODE":282.7944,"ARG_OF_PERICENTER":89.9572,"MEAN_ANOMALY":270.1792,"EPHEMERIS_TYPE":0,"CLASSIFICATION_TYPE":"U","NORAD_CAT_ID":48987,"ELEMENT_SET_NO":999,"REV_AT_EPOCH":20398,"BSTAR":-1.2273018e-5,"MEAN_MOTION_DOT":8.0e-8,"MEAN_MOTION_DDOT":0},{"OBJECT_NAME":"ONEWEB-0270","OBJECT_ID":"2021-060X","EPOCH":"2025-09-19T00:37:57.529056","MEAN_MOTION":13.1659487,"ECCENTRICITY":0.00014737,"INCLINATION":87.8979,"RA_OF_ASC_NODE":282.8233,"ARG_OF_PERICENTER":100.1887,"MEAN_ANOMALY":259.941,"EPHEMERIS_TYPE":0,"CLASSIFICATION_TYPE":"U","NORAD_CAT_ID":48988,"ELEMENT_SET_NO":999,"REV_AT_EPOCH":20398,"BSTAR":2.9764294e-5,"MEAN_MOTION_DOT":2.4e-7,"MEAN_MOTION_DDOT":0},{"OBJECT_NAME":"ONEWEB-0271","OBJECT_ID":"2021-060Y","EPOCH":"2025-09-19T00:19:43.144320","MEAN_MOTION":13.16595282,"ECCENTRICITY":0.00016136,"INCLINATION":87.8979,"RA_OF_ASC_NODE":282.8102,"ARG_OF_PERICENTER":92.6437,"MEAN_ANOMALY":267.4879,"EPHEMERIS_TYPE":0,"CLASSIFICATION_TYPE":"U","NORAD_CAT_ID":48989,"ELEMENT_SET_NO":999,"REV_AT_EPOCH":20398,"BSTAR":-2.9139479e-5,"MEAN_MOTION_DOT":2.0e-8,"MEAN_MOTION_DDOT":0},{"OBJECT_NAME":"ONEWEB-0272","OBJECT_ID":"2021-060Z","EPOCH":"2025-09-19T00:51:36.780768","MEAN_MOTION":13.16596526,"ECCENTRICITY":0.00016659,"INCLINATION":87.897,"RA_OF_ASC_NODE":282.8334,"ARG_OF_PERICENTER":86.5642,"MEAN_ANOMALY":273.568,"EPHEMERIS_TYPE":0,"CLASSIFICATION_TYPE":"U","NORAD_CAT_ID":48990,"ELEMENT_SET_NO":999,"REV_AT_EPOCH":20393,"BSTAR":0.00024426234,"MEAN_MOTION_DOT":1.06e-6,"MEAN_MOTION_DDOT":0},{"OBJECT_NAME":"ONEWEB-0273","OBJECT_ID":"2021-060AA","EPOCH":"2025-09-19T06:51:52.883136","MEAN_MOTION":13.16595347,"ECCENTRICITY":0.0001753,"INCLINATION":87.8977,"RA_OF_ASC_NODE":282.7718,"ARG_OF_PERICENTER":95.9242,"MEAN_ANOMALY":264.2089,"EPHEMERIS_TYPE":0,"CLASSIFICATION_TYPE":"U","NORAD_CAT_ID":48991,"ELEMENT_SET_NO":999,"REV_AT_EPOCH":20394,"BSTAR":0.00053053081,"MEAN_MOTION_DOT":2.16e-6,"MEAN_MOTION_DDOT":0},{"OBJECT_NAME":"ONEWEB-0274","OBJECT_ID":"2021-060AB","EPOCH":"2025-09-19T07:28:21.158400","MEAN_MOTION":13.16594802,"ECCENTRICITY":0.00018156,"INCLINATION":87.897,"RA_OF_ASC_NODE":282.7975,"ARG_OF_PERICENTER":80.1287,"MEAN_ANOMALY":280.0049,"EPHEMERIS_TYPE":0,"CLASSIFICATION_TYPE":"U","NORAD_CAT_ID":48992,"ELEMENT_SET_NO":999,"REV_AT_EPOCH":20398,"BSTAR":-0.00015051219,"MEAN_MOTION_DOT":-4.5e-7,"MEAN_MOTION_DDOT":0},{"OBJECT_NAME":"ONEWEB-0275","OBJECT_ID":"2021-060AC","EPOCH":"2025-09-19T07:12:23.115456","MEAN_MOTION":13.16595205,"ECCENTRICITY":0.00017942,"INCLINATION":87.8977,"RA_OF_ASC_NODE":282.7635,"ARG_OF_PERICENTER":89.738,"MEAN_ANOMALY":270.3957,"EPHEMERIS_TYPE":0,"CLASSIFICATION_TYPE":"U","NORAD_CAT_ID":48993,"ELEMENT_SET_NO":999,"REV_AT_EPOCH":20391,"BSTAR":0.00022153749,"MEAN_MOTION_DOT":9.8e-7,"MEAN_MOTION_DDOT":0},{"OBJECT_NAME":"ONEWEB-0276","OBJECT_ID":"2021-060AD","EPOCH":"2025-09-19T00:42:30.839904","MEAN_MOTION":13.1659554,"ECCENTRICITY":0.00018407,"INCLINATION":87.8978,"RA_OF_ASC_NODE":282.815,"ARG_OF_PERICENTER":97.7067,"MEAN_ANOMALY":262.4273,"EPHEMERIS_TYPE":0,"CLASSIFICATION_TYPE":"U","NORAD_CAT_ID":48994,"ELEMENT_SET_NO":999,"REV_AT_EPOCH":20389,"BSTAR":9.4331879e-5,"MEAN_MOTION_DOT":4.9e-7,"MEAN_MOTION_DDOT":0},{"OBJECT_NAME":"ONEWEB-0277","OBJECT_ID":"2021-060AE","EPOCH":"2025-09-19T01:00:43.422336","MEAN_MOTION":13.16605021,"ECCENTRICITY":0.00015602,"INCLINATION":87.8971,"RA_OF_ASC_NODE":282.845,"ARG_OF_PERICENTER":92.0865,"MEAN_ANOMALY":268.0444,"EPHEMERIS_TYPE":0,"CLASSIFICATION_TYPE":"U","NORAD_CAT_ID":48995,"ELEMENT_SET_NO":999,"REV_AT_EPOCH":20388,"BSTAR":0.0028143487,"MEAN_MOTION_DOT":1.089e-5,"MEAN_MOTION_DDOT":0},{"OBJECT_NAME":"ONEWEB-0278","OBJECT_ID":"2021-060AF","EPOCH":"2025-09-19T00:47:03.390432","MEAN_MOTION":13.16595908,"ECCENTRICITY":0.00020355,"INCLINATION":87.8978,"RA_OF_ASC_NODE":282.811,"ARG_OF_PERICENTER":98.1555,"MEAN_ANOMALY":261.9807,"EPHEMERIS_TYPE":0,"CLASSIFICATION_TYPE":"U","NORAD_CAT_ID":48996,"ELEMENT_SET_NO":999,"REV_AT_EPOCH":20401,"BSTAR":0.00042738218,"MEAN_MOTION_DOT":1.76e-6,"MEAN_MOTION_DDOT":0},{"OBJECT_NAME":"ONEWEB-0279","OBJECT_ID":"2021-060AG","EPOCH":"2025-09-19T00:58:27.812352","MEAN_MOTION":13.1659321,"ECCENTRICITY":0.00015527,"INCLINATION":87.8975,"RA_OF_ASC_NODE":282.8049,"ARG_OF_PERICENTER":87.208,"MEAN_ANOMALY":272.9228,"EPHEMERIS_TYPE":0,"CLASSIFICATION_TYPE":"U","NORAD_CAT_ID":48997,"ELEMENT_SET_NO":999,"REV_AT_EPOCH":20394,"BSTAR":0.00032320765,"MEAN_MOTION_DOT":1.36e-6,"MEAN_MOTION_DDOT":0},{"OBJECT_NAME":"ONEWEB-0280","OBJECT_ID":"2021-060AH","EPOCH":"2025-09-19T01:20:08.851200","MEAN_MOTION":13.16593913,"ECCENTRICITY":0.00017215,"INCLINATION":87.8977,"RA_OF_ASC_NODE":282.81,"ARG_OF_PERICENTER":102.4773,"MEAN_ANOMALY":257.6551,"EPHEMERIS_TYPE":0,"CLASSIFICATION_TYPE":"U","NORAD_CAT_ID":48998,"ELEMENT_SET_NO":999,"REV_AT_EPOCH":20388,"BSTAR":0.00026828607,"MEAN_MOTION_DOT":1.15e-6,"MEAN_MOTION_DDOT":0}]
