ONEWEB-0263             
1 48981U 21060Q   25262.29393818  .00000095  00000+0  21525-3 0  9990
2 48981  87.8972 282.7775 0001450  99.6945 260.4350 13.16594918203948
ONEWEB-0264             
1 48982U 21060R   25262.02715710  .00000024  00000+0  30041-4 0  9997
2 48982  87.8971 282.8351 0001711  84.4889 275.6437 13.16592978203913
ONEWEB-0266             
1 48984U 21060T   25262.04852774  .00000117  00000+0  27298-3 0  9995
2 48984  87.8977 282.8090 0001988  96.6264 263.5093 13.16595448203907
ONEWEB-0267             
1 48985U 21060U   25262.28760494  .00000158  00000+0  37994-3 0  9998
2 48985  87.8976 282.7638 0001597  90.7122 269.4192 13.16595272203942
ONEWEB-0268             
1 48986U 21060V   25262.02793484  .00000026  00000+0  33651-4 0  9997
2 48986  87.8978 282.8212 0001836  88.6832 271.4509 13.16595128204175
ONEWEB-0269             
1 48987U 21060W   25262.31294213  .00000008  00000+0 -12273-4 0  9994
2 48987  87.8968 282.7944 0002028  89.9572 270.1792 13.16594478203980
ONEWEB-0270             
1 48988U 21060X   25262.02636029  .00000024  00000+0  29764-4 0  9998
2 48988  87.8979 282.8233 0001473 100.1887 259.9410 13.16594870203981
ONEWEB-0271             
1 48989U 21060Y   25262.01369380  .00000002  00000+0 -29139-4 0  9994
2 48989  87.8979 282.8102 0001613  92.6437 267.4879 13.16595282203980
ONEWEB-0272             
1 48990U 21060Z   25262.03584237  .00000106  00000+0  24426-3 0  9995
2 48990  87.8970 282.8334 0001665  86.5642 273.5680 13.16596526203932
ONEWEB-0273             
1 48991U 21060AA  25262.28602874  .00000216  00000+0  53053-3 0  9991
2 48991  87.8977 282.7718 0001753  95.9242 264.2089 13.16595347203944
ONEWEB-0274             
1 48992U 21060AB  25262.31135600 -.00000045  00000+0 -15051-3 0  9992
2 48992  87.8970 282.7975 0001815  80.1287 280.0049 13.16594802203988
ONEWEB-0275             
1 48993U 21060AC  25262.30026754  .00000098  00000+0  22154-3 0  9999
2 48993  87.8977 282.7635 0001794  89.7380 270.3957 13.16595205203915
ONEWEB-0276             
1 48994U 21060AD  25262.02952361  .00000049  00000+0  94332-4 0  9995
2 48994  87.8978 282.8150 0001840  97.7067 262.4273 13.16595540203895
ONEWEB-0277             
1 48995U 21060AE  25262.04216924  .00001089  00000+0  28143-2 0  9996
2 48995  87.8971 282.8450 0001560  92.0865 268.0444 13.16605021203882
ONEWEB-0278             
1 48996U 21060AF  25262.03267813  .00000176  00000+0  42738-3 0  9992
2 48996  87.8978 282.8110 0002035  98.1555 261.9807 13.16595908204017
ONEWEB-0279             
1 48997U 21060AG  25262.04059968  .00000136  00000+0  32321-3 0  9997
2 48997  87.8975 282.8049 0001552  87.2080 272.9228 13.16593210203945
ONEWEB-0280             
1 48998U 21060AH  25262.05565800  .00000115  00000+0  26829-3 0  9999
2 48998  87.8977 282.8100 0001721 102.4773 257.6551 13.16593913203885
